OBJECT_NAME,OBJECT_ID,EPOCH,MEAN_MOTION,ECCENTRICITY,INCLINATION,RA_OF_ASC_NODE,ARG_OF_PERICENTER,MEAN_ANOMALY,EPHEMERIS_TYPE,CLASSIFICATION_TYPE,NORAD_CAT_ID,ELEMENT_SET_NO,REV_AT_EPOCH,BSTAR,MEAN_MOTION_DOT,MEAN_MOTION_DDOT
BEIDOU-3S IGSO-1S (C31),2015-019A,2026-07-02T19:12:21.705408,1.00680073,.00768606,49.1798,295.2769,219.1125,144.2493,0,U,40549,999,4123,0,-.19E-5,0
GPS BIIF-10 (PRN 08),2015-033A,2026-07-11T15:39:22.089600,2.00554867,.01152883,53.9638,266.0769,30.2822,330.4526,0,U,40730,999,8048,0,.13E-6,0
BEIDOU-3S M2S (C58),2015-037A,2026-07-10T09:53:34.240704,1.86232238,.0009273,54.8489,301.2473,257.2247,102.6907,0,U,40748,999,7455,0,-.67E-6,0
BEIDOU-3S M1S (C57),2015-037B,2026-07-11T16:34:22.490112,1.86254753,.00028343,54.8440,301.1898,63.3740,296.6751,0,U,40749,999,7458,0,-.66E-6,0
GSAT0206 (GALILEO 10),2015-045B,2026-07-10T08:01:00.659424,1.70473539,.00020653,54.9400,220.9648,329.8405,30.2271,0,U,40890,999,6743,0,.9E-6,0
BEIDOU-3S IGSO-2S (C56),2015-053A,2026-07-11T15:42:50.226336,1.00253704,.00663477,49.1834,258.4907,193.2506,167.1648,0,U,40938,999,3960,0,-.91E-6,0
GPS BIIF-11 (PRN 10),2015-062A,2026-07-11T05:00:37.721088,2.00566836,.01126926,56.9756,29.8863,230.9012,128.1431,0,U,41019,999,7831,0,-.5E-6,0
GSAT-15 (GAGAN/PRN 139),2015-065A,2026-07-12T03:29:38.637312,1.00269124,.00035496,0.0230,46.4211,46.1893,343.3564,0,U,41028,999,3904,0,0,0
GSAT0209 (GALILEO 12),2015-079A,2026-07-08T03:44:33.897696,1.70473596,.00049977,55.8390,100.6867,350.6288,9.3765,0,U,41174,999,6513,0,-.8E-7,0
GSAT0208 (GALILEO 11),2015-079B,2026-07-11T21:30:04.891680,1.70473473,.00049699,55.8397,100.5809,26.8071,333.2285,0,U,41175,999,6561,0,-.3E-6,0
IRNSS-1E,2016-003A,2026-07-10T13:58:50.692224,1.00267797,.0019285,33.2836,59.4106,178.7449,11.7354,0,U,41241,999,3831,0,-.316E-5,0
GPS BIIF-12 (PRN 32),2016-007A,2026-07-11T07:12:24.012288,2.00575559,.00966051,55.5386,88.5035,247.6261,111.3816,0,U,41328,999,7632,0,-.38E-6,0
COSMOS 2514 (751),2016-008A,2026-07-11T05:13:06.678624,2.13102486,.00121908,65.0058,312.1821,200.7153,159.2416,0,U,41330,999,8113,0,-.62E-6,0
BEIDOU-2 IGSO-6 (C13),2016-021A,2026-06-26T02:38:38.671584,1.00258926,.0057558,60.2385,37.9495,231.0163,137.2672,0,U,41434,999,3757,0,-.145E-5,0
IRNSS-1G,2016-027A,2026-07-11T15:53:08.725920,1.00272899,.00059695,5.2542,96.9079,9.8373,190.7801,0,U,41469,999,3742,0,-.334E-5,0
GSAT0211 (GALILEO 14),2016-030A,2026-07-10T20:18:43.597152,1.70473689,.00033143,55.0905,221.0437,318.6557,41.3997,0,U,41549,999,6307,0,.9E-6,0
GSAT0210 (GALILEO 13),2016-030B,2026-07-11T16:33:50.715648,1.70473889,.00046667,55.0894,221.0186,245.3179,114.7139,0,U,41550,999,6308,0,.88E-6,0
BEIDOU-2 G7 (C03),2016-037A,2026-07-12T07:11:37.447872,1.00275077,.00060424,1.7785,69.4800,359.1968,79.9389,0,U,41586,999,714,0,-.353E-5,0
EUTELSAT 117 WEST B (WAAS/PRN 131),2016-038B,2026-07-12T05:36:38.949696,1.00270533,.00002608,0.0065,165.7918,298.8739,152.6352,0,U,41589,999,3691,0,-.9E-7,0
GSAT0207 (GALILEO 15),2016-069A,2026-07-11T23:14:54.714048,1.70473524,.00045217,55.5126,100.4004,339.9754,20.0172,0,U,41859,999,5982,0,-.3E-6,0
GSAT0212 (GALILEO 16),2016-069B,2026-07-11T05:39:07.311456,1.70473636,.00043885,55.5101,100.4158,9.8985,350.1187,0,U,41860,999,6006,0,-.28E-6,0
GSAT0213 (GALILEO 17),2016-069C,2026-07-10T10:18:28.366272,1.70474095,.00043943,55.5116,100.4460,317.3165,42.6580,0,U,41861,999,5991,0,-.24E-6,0
GSAT0214 (GALILEO 18),2016-069D,2026-07-11T03:53:46.103424,1.70473737,.00038218,55.5107,100.4185,326.4011,33.5832,0,U,41862,999,6005,0,-.28E-6,0
SES-15 (WAAS/PRN 133),2017-026A,2026-07-12T08:23:45.046752,1.00267408,.00002373,0.0267,327.0214,136.5807,183.4122,0,U,42709,999,768,0,.62E-6,0
QZS-2 (QZSS/PRN 194),2017-028A,2026-07-11T11:07:39.425664,1.00277700,.07578552,39.3917,242.7958,269.5568,86.3006,0,U,42738,999,787,0,-.92E-6,0
QZS-3 (QZSS/PRN 199),2017-048A,2026-07-12T07:16:14.505024,1.00273497,.00024856,0.0702,217.1962,268.5246,40.5613,0,U,42917,999,3251,0,-.346E-5,0
COSMOS 2522 (752),2017-055A,2026-07-10T02:47:54.879360,2.13101919,.00109107,64.0805,191.1038,240.8947,119.0275,0,U,42939,999,6846,0,.122E-5,0
QZS-4 (QZSS/PRN 195),2017-062A,2026-07-11T21:21:47.890368,1.00290892,.07474763,40.0939,343.1714,268.4974,137.4815,0,U,42965,999,3205,0,-.326E-5,0
BEIDOU-3 M1 (C19),2017-069A,2026-07-11T07:06:21.043296,1.86231117,.00093576,56.7122,62.2913,328.5937,31.4164,0,U,43001,999,5905,0,-.44E-6,0
BEIDOU-3 M2 (C20),2017-069B,2026-07-10T03:51:48.602880,1.86230592,.00082547,56.7107,62.3639,357.9796,2.0799,0,U,43002,999,5902,0,-.46E-6,0
GSAT0215 (GALILEO 19),2017-079A,2026-07-11T01:34:10.051104,1.70474334,.00036979,55.0682,220.8492,267.9007,92.1373,0,U,43055,999,5339,0,.9E-6,0
